     2.11           N: GPS NAV DATA                         RINEX VERSION / TYPE
GNSS-SDR            UNKNOWN USER        18-OCT-21 06:19     PGM / RUN BY / DATE 
GPS NAVIGATION MESSAGE FILE GENERATED BY GNSS-SDR           COMMENT             
GNSS-SDR VERSION 0.0.15.git-next-61d5485e2                  COMMENT             
See https://gnss-sdr.org                                    COMMENT             
     .0000D+00   .0000D+00   .0000D+00   .0000D+00          ION ALPHA           
     .0000D+00   .0000D+00   .0000D+00   .0000D+00          ION BETA            
     .000000000000D+00  .000000000000D+00        0     1734 DELTA-UTC: A0,A1,T,W
     0                                                      LEAP SECONDS        
                                                            END OF HEADER       
 1 13  4  4  8  0  0.0  .131218694150D-04  .341060513165D-11  .000000000000D+00 
     .110000000000D+02  .116562500000D+02  .469126683867D-08  .290776705900D+01 
     .637024641037D-06  .170298689045D-02  .101700425148D-04  .515369928551D+04 
     .374400000000D+06 -.372529029846D-07 -.463216424698D+00  .298023223877D-07 
     .960444050418D+00  .182375000000D+03  .314251584560D+00 -.798604693662D-08 
     .333585323739D-09  .100000000000D+01  .173400000000D+04  .100000000000D+01 
     .000000000000D+00  .000000000000D+00  .838190317154D-08  .110000000000D+02 
     .368688000000D+06  .000000000000D+00                                       
11 13  4  4  8  0  0.0 -.368993729353D-03 -.363797880709D-11  .000000000000D+00 
     .230000000000D+02 -.160312500000D+02  .612418366826D-08  .252974727913D+01 
    -.951811671257D-06  .138659180375D-01  .104196369648D-04  .515368804359D+04 
     .374400000000D+06  .689178705215D-07 -.756159650685D+00 -.147148966789D-06 
     .888839231173D+00  .136468750000D+03  .115477389681D+01 -.851285459456D-08 
     .259653672761D-09  .100000000000D+01  .173400000000D+04  .100000000000D+01 
     .000000000000D+00  .000000000000D+00 -.116415321827D-07  .230000000000D+02 
     .368688000000D+06  .000000000000D+00                                       
17 13  4  4  8  0  0.0  .334349460900D-04 -.397903932026D-11  .000000000000D+00 
     .510000000000D+02 -.897500000000D+02  .450733060555D-08 -.121732721180D+01 
    -.447407364845D-05  .829776155297D-02  .898726284504D-05  .515361190224D+04 
     .374400000000D+06  .163912773132D-06 -.147195380595D+01  .122934579849D-06 
     .964728829217D+00  .206562500000D+03 -.220222430218D+01 -.804569227824D-08 
    -.139291516336D-10  .100000000000D+01  .173400000000D+04  .100000000000D+01 
     .000000000000D+00  .000000000000D+00 -.102445483208D-07  .510000000000D+02 
     .368688000000D+06  .000000000000D+00                                       
20 13  4  4  8  0  0.0  .913110561669D-04  .181898940355D-11  .000000000000D+00 
     .270000000000D+02  .166562500000D+02  .564809240858D-08  .836569718258D+00 
     .832602381706D-06  .551280099899D-02  .632926821709D-05  .515376352119D+04 
     .374400000000D+06 -.894069671631D-07  .531083943218D+00  .279396772385D-07 
     .928615084294D+00  .240375000000D+03  .129700689997D+01 -.870179103595D-08 
    -.147148986489D-09  .100000000000D+01  .173400000000D+04  .100000000000D+01 
     .000000000000D+00  .000000000000D+00 -.791624188423D-08  .270000000000D+02 
     .368688000000D+06  .000000000000D+00                                       
32 13  4  4  8  0  0.0 -.548020005226D-03 -.261479726760D-11  .000000000000D+00 
     .350000000000D+02  .145000000000D+02  .498199323430D-08  .282838824481D+01 
     .707805156708D-06  .115736686857D-01  .668689608574D-05  .515372048759D+04 
     .374400000000D+06 -.156462192535D-06  .669741896433D+00  .169500708580D-06 
     .949762437029D+00  .243812500000D+03 -.377424815476D+00 -.814141055100D-08 
    -.236438420038D-09  .100000000000D+01  .173400000000D+04  .100000000000D+01 
     .000000000000D+00  .000000000000D+00 -.325962901115D-08  .350000000000D+02 
     .368688000000D+06  .000000000000D+00                                       
